COMMENT,ORIGINATOR,NORAD_CAT_ID,OBJECT_NAME,OBJECT_TYPE,CLASSIFICATION_TYPE,INTLDES,EPOCH,EPOCH_MICROSECONDS,MEAN_MOTION,ECCENTRICITY,INCLINATION,RA_OF_ASC_NODE,ARG_OF_PERICENTER,MEAN_ANOMALY,EPHEMERIS_TYPE,ELEMENT_SET_NO,REV_AT_EPOCH,BSTAR,MEAN_MOTION_DOT,MEAN_MOTION_DDOT,FILE,TLE_LINE0,TLE_LINE1,TLE_LINE2,OBJECT_ID,OBJECT_NUMBER,SEMIMAJOR_AXIS,PERIOD,APOGEE,PERIGEE,DECAYED
"GENERATED VIA SPACETRACK.ORG API","18 SPCS","48894","SPACEBEE-107","PAYLOAD","U","21059R","2023-08-30 15:57:43","895232","15.38738259","0.0004956","97.6043","22.5879","2.9989","357.1285","0","999","12085","0.0010563","0.00040536","0","3993321","0 SPACEBEE-107","1 48894U 21059R   23242.66509138  .00040536  00000-0  10563-2 0  9996","2 48894  97.6043  22.5879 0004956   2.9989 357.1285 15.38738259120856","2021-059R","48894","6827.976","93.583","453.225","446.457","1"
"GENERATED VIA SPACETRACK.ORG API","18 SPCS","48894","SPACEBEE-107","PAYLOAD","U","21059R","2023-08-31 09:07:47","379936","15.38800284","0.0004969","97.6045","23.3295","0.1129","0.0116","0","999","12096","0.00108","0.00041536","0","3993768","0 SPACEBEE-107","1 48894U 21059R   23243.38040949  .00041536  00000-0  10800-2 0  9991","2 48894  97.6045  23.3295 0004969   0.1129   0.0116 15.38800284120966","2021-059R","48894","6827.793","93.579","453.051","446.265","1"
"GENERATED VIA SPACETRACK.ORG API","18 SPCS","48894","SPACEBEE-107","PAYLOAD","U","21059R","2023-08-31 09:07:47","379936","15.38800284","0.0004969","97.6045","23.3295","0.1129","0.0116","0","999","12096","0.00108","0.00041536","0","3994074","0 SPACEBEE-107","1 48894U 21059R   23243.38040949  .00041536  00000-0  10800-2 0  9991","2 48894  97.6045  23.3295 0004969   0.1129   0.0116 15.38800284120966","2021-059R","48894","6827.793","93.579","453.051","446.265","1"
"GENERATED VIA SPACETRACK.ORG API","18 SPCS","48894","SPACEBEE-107","PAYLOAD","U","21059R","2023-09-01 08:32:21","10272","15.38883605","0.0004983","97.605","24.3412","355.5341","4.5858","0","999","12111","0.001158","0.00044682","0","3994767","0 SPACEBEE-107","1 48894U 21059R   23244.35579873  .00044682  00000-0  11580-2 0  9993","2 48894  97.6050  24.3412 0004983 355.5341   4.5858 15.38883605121111","2021-059R","48894","6827.546","93.574","452.814","446.009","1"
"GENERATED VIA SPACETRACK.ORG API","18 SPCS","48894","SPACEBEE-107","PAYLOAD","U","21059R","2023-09-01 14:46:53","162976","15.38910119","0.0004972","97.6052","24.611","354.4216","5.6972","0","999","12115","0.0012763","0.00049328","0","3994851","0 SPACEBEE-107","1 48894U 21059R   23244.61589309  .00049328  00000-0  12763-2 0  9993","2 48894  97.6052  24.6110 0004972 354.4216   5.6972 15.38910119121152","2021-059R","48894","6827.468","93.573","452.728","445.938","1"
"GENERATED VIA SPACETRACK.ORG API","18 SPCS","48894","SPACEBEE-107","PAYLOAD","U","21059R","2023-09-01 14:46:53","162976","15.38910119","0.0004972","97.6052","24.611","354.4216","5.6972","0","999","12115","0.0012763","0.00049328","0","3995056","0 SPACEBEE-107","1 48894U 21059R   23244.61589309  .00049328  00000-0  12763-2 0  9993","2 48894  97.6052  24.6110 0004972 354.4216   5.6972 15.38910119121152","2021-059R","48894","6827.468","93.573","452.728","445.938","1"
"GENERATED VIA SPACETRACK.ORG API","18 SPCS","48894","SPACEBEE-107","PAYLOAD","U","21059R","2023-09-02 09:30:27","406656","15.38982616","0.0004987","97.6055","25.4205","351.3874","8.7284","0","999","12127","0.0011538","0.00044663","0","3995624","0 SPACEBEE-107","1 48894U 21059R   23245.39615054  .00044663  00000-0  11538-2 0  9992","2 48894  97.6055  25.4205 0004987 351.3874   8.7284 15.38982616121275","2021-059R","48894","6827.254","93.568","452.523","445.714","1"
"GENERATED VIA SPACETRACK.ORG API","18 SPCS","48894","SPACEBEE-107","PAYLOAD","U","21059R","2023-09-02 20:25:50","698272","15.39057688","0.0005","97.6058","25.8929","349.6499","10.4642","0","999","12134","0.0020824","0.00081262","0","3995999","0 SPACEBEE-107","1 48894U 21059R   23245.85128123  .00081262  00000-0  20824-2 0  9993","2 48894  97.6058  25.8929 0005000 349.6499  10.4642 15.39057688121344","2021-059R","48894","6827.032","93.564","452.310","445.483","1"
"GENERATED VIA SPACETRACK.ORG API","18 SPCS","48894","SPACEBEE-107","PAYLOAD","U","21059R","2023-09-03 08:54:50","78880","15.39095472","0.0005019","97.6057","26.4326","347.5884","12.5236","0","999","12142","0.0014276","0.00055565","0","3996403","0 SPACEBEE-107","1 48894U 21059R   23246.37141295  .00055565  00000-0  14276-2 0  9997","2 48894  97.6057  26.4326 0005019 347.5884  12.5236 15.39095472121420","2021-059R","48894","6826.920","93.561","452.211","445.358","1"
"GENERATED VIA SPACETRACK.ORG API","18 SPCS","48894","SPACEBEE-107","PAYLOAD","U","21059R","2023-09-03 08:54:50","78880","15.39095472","0.0005019","97.6057","26.4326","347.5884","12.5236","0","999","12142","0.0014276","0.00055565","0","3996586","0 SPACEBEE-107","1 48894U 21059R   23246.37141295  .00055565  00000-0  14276-2 0  9997","2 48894  97.6057  26.4326 0005019 347.5884  12.5236 15.39095472121420","2021-059R","48894","6826.920","93.561","452.211","445.358","1"
"GENERATED VIA SPACETRACK.ORG API","18 SPCS","48894","SPACEBEE-107","PAYLOAD","U","21059R","2023-09-03 21:23:47","889600","15.39142963","0.0004986","97.6054","26.9722","345.1573","14.9525","0","999","12150","0.001192","0.00046397","0","3997014","0 SPACEBEE-107","1 48894U 21059R   23246.89152650  .00046397  00000-0  11920-2 0  9997","2 48894  97.6054  26.9722 0004986 345.1573  14.9525 15.39142963121507","2021-059R","48894","6826.779","93.559","452.048","445.241","1"
"GENERATED VIA SPACETRACK.ORG API","18 SPCS","48894","SPACEBEE-107","PAYLOAD","U","21059R","2023-09-04 08:19:07","417632","15.39181449","0.0004997","97.6054","27.4444","343.2265","16.8814","0","999","12157","0.0011385","0.00044355","0","3997503","0 SPACEBEE-107","1 48894U 21059R   23247.34661363  .00044355  00000-0  11385-2 0  9991","2 48894  97.6054  27.4444 0004997 343.2265  16.8814 15.39181449121574","2021-059R","48894","6826.666","93.556","451.942","445.119","1"
"GENERATED VIA SPACETRACK.ORG API","18 SPCS","48894","SPACEBEE-107","PAYLOAD","U","21059R","2023-09-05 09:16:57","58464","15.39263553","0.0004994","97.6054","28.524","339.5679","20.5366","0","999","12173","0.0010098","0.00039411","0","3998198","0 SPACEBEE-107","1 48894U 21059R   23248.38677151  .00039411  00000-0  10098-2 0  9995","2 48894  97.6054  28.5240 0004994 339.5679  20.5366 15.39263553121733","2021-059R","48894","6826.423","93.551","451.697","444.879","1"
"GENERATED VIA SPACETRACK.ORG API","18 SPCS","48894","SPACEBEE-107","PAYLOAD","U","21059R","2023-09-05 09:16:57","58464","15.39263553","0.0004994","97.6054","28.524","339.5679","20.5366","0","999","12173","0.0010098","0.00039411","0","3998343","0 SPACEBEE-107","1 48894U 21059R   23248.38677151  .00039411  00000-0  10098-2 0  9995","2 48894  97.6054  28.5240 0004994 339.5679  20.5366 15.39263553121733","2021-059R","48894","6826.423","93.551","451.697","444.879","1"
"GENERATED VIA SPACETRACK.ORG API","18 SPCS","48894","SPACEBEE-107","PAYLOAD","U","21059R","2023-09-06 08:41:05","246592","15.3935002","0.0005013","97.6053","29.5359","335.342","24.7585","0","999","12188","0.0011754","0.00046059","0","3999158","0 SPACEBEE-107","1 48894U 21059R   23249.36186628  .00046059  00000-0  11754-2 0  9994","2 48894  97.6053  29.5359 0005013 335.3420  24.7585 15.39350020121886","2021-059R","48894","6826.167","93.546","451.454","444.610","1"
"GENERATED VIA SPACETRACK.ORG API","18 SPCS","48894","SPACEBEE-107","PAYLOAD","U","21059R","2023-09-06 08:41:05","246592","15.3935002","0.0005013","97.6053","29.5359","335.342","24.7585","0","999","12188","0.0011754","0.00046059","0","3999204","0 SPACEBEE-107","1 48894U 21059R   23249.36186628  .00046059  00000-0  11754-2 0  9994","2 48894  97.6053  29.5359 0005013 335.3420  24.7585 15.39350020121886","2021-059R","48894","6826.167","93.546","451.454","444.610","1"
"GENERATED VIA SPACETRACK.ORG API","18 SPCS","48894","SPACEBEE-107","PAYLOAD","U","21059R","2023-09-07 08:05:08","725056","15.39438695","0.0005064","97.6052","30.5481","331.7347","28.3622","0","999","12203","0.001223","0.0004808","0","4000037","0 SPACEBEE-107","1 48894U 21059R   23250.33690654  .00048080  00000-0  12230-2 0  9998","2 48894  97.6052  30.5481 0005064 331.7347  28.3622 15.39438695122032","2021-059R","48894","6825.905","93.541","451.227","444.313","1"
"GENERATED VIA SPACETRACK.ORG API","18 SPCS","48894","SPACEBEE-107","PAYLOAD","U","21059R","2023-09-08 09:02:43","140480","15.39533213","0.0005018","97.6047","31.6274","328.2503","31.8439","0","999","12219","0.0012467","0.00049171","0","4000670","0 SPACEBEE-107","1 48894U 21059R   23251.37688820  .00049171  00000-0  12467-2 0  9999","2 48894  97.6047  31.6274 0005018 328.2503  31.8439 15.39533213122196","2021-059R","48894","6825.626","93.535","450.916","444.066","1"
"GENERATED VIA SPACETRACK.ORG API","18 SPCS","48894","SPACEBEE-107","PAYLOAD","U","21059R","2023-09-08 09:02:43","140480","15.39533213","0.0005018","97.6047","31.6274","328.2503","31.8439","0","999","12219","0.0012467","0.00049171","0","4000854","0 SPACEBEE-107","1 48894U 21059R   23251.37688820  .00049171  00000-0  12467-2 0  9999","2 48894  97.6047  31.6274 0005018 328.2503  31.8439 15.39533213122196","2021-059R","48894","6825.626","93.535","450.916","444.066","1"
"GENERATED VIA SPACETRACK.ORG API","18 SPCS","48894","SPACEBEE-107","PAYLOAD","U","21059R","2023-09-08 21:31:28","278912","15.39580064","0.0005088","97.6048","32.1675","325.8665","34.2252","0","999","12227","0.0012006","0.00047412","0","4001154","0 SPACEBEE-107","1 48894U 21059R   23251.89685508  .00047412  00000-0  12006-2 0  9991","2 48894  97.6048  32.1675 0005088 325.8665  34.2252 15.39580064122272","2021-059R","48894","6825.487","93.532","450.825","443.879","1"
